FLOCK 3P-66             
1 42027U 17008CH  17073.88495829  .00001235  00000-0  57254-4 0  9990
2 42027  97.5081 135.4738 0008889 170.1385 190.0016 15.21952431  4145
